{"type": "FeatureCollection", "features": [ {"type": "Feature", "properties": {"norad_id": 44543, "name": "BEIDOU-3 M23 (C45)", "group": "beidou", "lat": 37.242673022222036, "lon": -138.34829284939568, "alt_km": 21508.06246511556, "timestamp": "2025-12-23T07:45:09.669998+00:00", "meta": {"OBJECT_NAME": "BEIDOU-3 M23 (C45)", "OBJECT_ID": "2019-061B", "EPOCH": "2025-12-22T04:16:38.631360", "MEAN_MOTION": 1.86227761, "ECCENTRICITY": 0.00060882, "INCLINATION": 54.3995, "RA_OF_ASC_NODE": 188.6659, "ARG_OF_PERICENTER": 26.1092, "MEAN_ANOMALY": 334.4978, "EPHEMERIS_TYPE": 0, "CLASSIFICATION_TYPE": "U", "NORAD_CAT_ID": 44543, "ELEMENT_SET_NO": 999, "REV_AT_EPOCH": 4250, "BSTAR": 0, "MEAN_MOTION_DOT": 9.4e-07, "MEAN_MOTION_DDOT": 0}, "tle": {"line1": "1 44543U 19061B   25356.17822490  .00000094  00000+0  00000+0 0  9992", "line2": "2 44543  54.3995 188.6659 0006088  26.1092 334.4978  1.86227761 42501"}}, "geometry": {"type": "Point", "coordinates": [-138.34829284939568, 37.242673022222036]}}, {"type": "Feature", "properties": {"norad_id": 44793, "name": "BEIDOU-3 M22 (C44)", "group": "beidou", "lat": -46.01809919433251, "lon": 174.56418994374232, "alt_km": 21546.41315341138, "timestamp": "2025-12-23T07:45:09.670009+00:00", "meta": {"OBJECT_NAME": "BEIDOU-3 M22 (C44)", "OBJECT_ID": "2019-078A", "EPOCH": "2025-12-21T21:17:38.154624", "MEAN_MOTION": 1.86232205, "ECCENTRICITY": 0.00060942, "INCLINATION": 54.1, "RA_OF_ASC_NODE": 306.0655, "ARG_OF_PERICENTER": 24.0092, "MEAN_ANOMALY": 336.0189, "EPHEMERIS_TYPE": 0, "CLASSIFICATION_TYPE": "U", "NORAD_CAT_ID": 44793, "ELEMENT_SET_NO": 999, "REV_AT_EPOCH": 4134, "BSTAR": 0, "MEAN_MOTION_DOT": -5.9e-07, "MEAN_MOTION_DDOT": 0}, "tle": {"line1": "1 44793U 19078A   25355.88724716 -.00000059  00000+0  00000+0 0  9998", "line2": "2 44793  54.1000 306.0655 0006094  24.0092 336.0189  1.86232205 41341"}}, "geometry": {"type": "Point", "coordinates": [174.56418994374232, -46.01809919433251]}}, {"type": "Feature", "properties": {"norad_id": 44794, "name": "BEIDOU-3 M21 (C43)", "group": "beidou", "lat": 23.69686120363006, "lon": 107.42494621494137, "alt_km": 21534.318585857265, "timestamp": "2025-12-23T07:45:09.670020+00:00", "meta": {"OBJECT_NAME": "BEIDOU-3 M21 (C43)", "OBJECT_ID": "2019-078B", "EPOCH": "2025-12-22T00:36:11.320992", "MEAN_MOTION": 1.86227906, "ECCENTRICITY": 0.00042988, "INCLINATION": 54.0732, "RA_OF_ASC_NODE": 306.0255, "ARG_OF_PERICENTER": 12.7951, "MEAN_ANOMALY": 347.2162, "EPHEMERIS_TYPE": 0, "CLASSIFICATION_TYPE": "U", "NORAD_CAT_ID": 44794, "ELEMENT_SET_NO": 999, "REV_AT_EPOCH": 4135, "BSTAR": 0, "MEAN_MOTION_DOT": -5.8e-07, "MEAN_MOTION_DDOT": 0}, "tle": {"line1": "1 44794U 19078B   25356.02513103 -.00000058  00000+0  00000+0 0  9991", "line2": "2 44794  54.0732 306.0255 0004298  12.7951 347.2162  1.86227906 41359"}}, "geometry": {"type": "Point", "coordinates": [107.42494621494137, 23.69686120363006]}}, {"type": "Feature", "properties": {"norad_id": 44864, "name": "BEIDOU-3 M19 (C41)", "group": "beidou", "lat": -11.496567371737308, "lon": 60.86968033153176, "alt_km": 21504.99239915876, "timestamp": "2025-12-23T07:45:09.670031+00:00", "meta": {"OBJECT_NAME": "BEIDOU-3 M19 (C41)", "OBJECT_ID": "2019-090A", "EPOCH": "2025-12-22T08:14:48.901056", "MEAN_MOTION": 1.86231645, "ECCENTRICITY": 0.00183489, "INCLINATION": 56.4008, "RA_OF_ASC_NODE": 68.6432, "ARG_OF_PERICENTER": 285.1191, "MEAN_ANOMALY": 124.2655, "EPHEMERIS_TYPE": 0, "CLASSIFICATION_TYPE": "U", "NORAD_CAT_ID": 44864, "ELEMENT_SET_NO": 999, "REV_AT_EPOCH": 4094, "BSTAR": 0, "MEAN_MOTION_DOT": -2.9e-07, "MEAN_MOTION_DDOT": 0}, "tle": {"line1": "1 44864U 19090A   25356.34362154 -.00000029  00000+0  00000+0 0  9994", "line2": "2 44864  56.4008  68.6432 0018348 285.1191 124.2655  1.86231645 40949"}}, "geometry": {"type": "Point", "coordinates": [60.86968033153176, -11.496567371737308]}}, {"type": "Feature", "properties": {"norad_id": 44865, "name": "BEIDOU-3 M20 (C42)", "group": "beidou", "lat": 53.84323944748916, "lon": 133.95845363811165, "alt_km": 21554.04956322976, "timestamp": "2025-12-23T07:45:09.670042+00:00", "meta": {"OBJECT_NAME": "BEIDOU-3 M20 (C42)", "OBJECT_ID": "2019-090B", "EPOCH": "2025-12-22T16:05:30.934752", "MEAN_MOTION": 1.86231578, "ECCENTRICITY": 0.00154965, "INCLINATION": 56.4027, "RA_OF_ASC_NODE": 68.6668, "ARG_OF_PERICENTER": 297.2776, "MEAN_ANOMALY": 60.8731, "EPHEMERIS_TYPE": 0, "CLASSIFICATION_TYPE": "U", "NORAD_CAT_ID": 44865, "ELEMENT_SET_NO": 999, "REV_AT_EPOCH": 4092, "BSTAR": 0, "MEAN_MOTION_DOT": -2.8e-07, "MEAN_MOTION_DDOT": 0}, "tle": {"line1": "1 44865U 19090B   25356.67049693 -.00000028  00000+0  00000+0 0  9990", "line2": "2 44865  56.4027  68.6668 0015496 297.2776  60.8731  1.86231578 40929"}}, "geometry": {"type": "Point", "coordinates": [133.95845363811165, 53.84323944748916]}}, {"type": "Feature", "properties": {"norad_id": 45344, "name": "BEIDOU-3 G2 (C60)", "group": "beidou", "lat": -2.293773439098756, "lon": -71.57389487785828, "alt_km": 35777.45882128121, "timestamp": "2025-12-23T07:45:09.670053+00:00", "meta": {"OBJECT_NAME": "BEIDOU-3 G2 (C60)", "OBJECT_ID": "2020-017A", "EPOCH": "2025-12-19T13:38:45.370752", "MEAN_MOTION": 1.00273166, "ECCENTRICITY": 0.0002079, "INCLINATION": 2.5096, "RA_OF_ASC_NODE": 44.0024, "ARG_OF_PERICENTER": 233.0917, "MEAN_ANOMALY": 96.0359, "EPHEMERIS_TYPE": 0, "CLASSIFICATION_TYPE": "U", "NORAD_CAT_ID": 45344, "ELEMENT_SET_NO": 999, "REV_AT_EPOCH": 2145, "BSTAR": 0, "MEAN_MOTION_DOT": -1.18e-06, "MEAN_MOTION_DDOT": 0}, "tle": {"line1": "1 45344U 20017A   25353.56858068 -.00000118  00000+0  00000+0 0  9993", "line2": "2 45344   2.5096  44.0024 0002079 233.0917  96.0359  1.00273166 21451"}}, "geometry": {"type": "Point", "coordinates": [-71.57389487785828, -2.293773439098756]}}, {"type": "Feature", "properties": {"norad_id": 45807, "name": "BEIDOU-3 G3 (C61)", "group": "beidou", "lat": -1.938088341756806, "lon": -41.11771267744392, "alt_km": 35772.235676649, "timestamp": "2025-12-23T07:45:09.670065+00:00", "meta": {"OBJECT_NAME": "BEIDOU-3 G3 (C61)", "OBJECT_ID": "2020-040A", "EPOCH": "2025-12-22T22:15:02.225376", "MEAN_MOTION": 1.00269046, "ECCENTRICITY": 0.00065459, "INCLINATION": 2.0143, "RA_OF_ASC_NODE": 66.6672, "ARG_OF_PERICENTER": 309.2145, "MEAN_ANOMALY": 160.1609, "EPHEMERIS_TYPE": 0, "CLASSIFICATION_TYPE": "U", "NORAD_CAT_ID": 45807, "ELEMENT_SET_NO": 999, "REV_AT_EPOCH": 2030, "BSTAR": 0, "MEAN_MOTION_DOT": -3.33e-06, "MEAN_MOTION_DDOT": 0}, "tle": {"line1": "1 45807U 20040A   25356.92710909 -.00000333  00000+0  00000+0 0  9996", "line2": "2 45807   2.0143  66.6672 0006545 309.2145 160.1609  1.00269046 20309"}}, "geometry": {"type": "Point", "coordinates": [-41.11771267744392, -1.938088341756806]}}, {"type": "Feature", "properties": {"norad_id": 56564, "name": "BEIDOU-3 G4 (C62)", "group": "beidou", "lat": 0.7228495394280788, "lon": 8.442401666179085, "alt_km": 35796.708750531434, "timestamp": "2025-12-23T07:45:09.670092+00:00", "meta": {"OBJECT_NAME": "BEIDOU-3 G4 (C62)", "OBJECT_ID": "2023-066A", "EPOCH": "2025-12-22T22:29:08.375136", "MEAN_MOTION": 1.00271206, "ECCENTRICITY": 0.00026513, "INCLINATION": 0.7938, "RA_OF_ASC_NODE": 302.8252, "ARG_OF_PERICENTER": 227.2007, "MEAN_ANOMALY": 59.0519, "EPHEMERIS_TYPE": 0, "CLASSIFICATION_TYPE": "U", "NORAD_CAT_ID": 56564, "ELEMENT_SET_NO": 999, "REV_AT_EPOCH": 962, "BSTAR": 0, "MEAN_MOTION_DOT": -8.9e-07, "MEAN_MOTION_DDOT": 0}, "tle": {"line1": "1 56564U 23066A   25356.93690249 -.00000089  00000+0  00000+0 0  9992", "line2": "2 56564   0.7938 302.8252 0002651 227.2007  59.0519  1.00271206  9626"}}, "geometry": {"type": "Point", "coordinates": [8.442401666179085, 0.7228495394280788]}}, {"type": "Feature", "properties": {"norad_id": 58654, "name": "BEIDOU-3 M28 (C50)", "group": "beidou", "lat": 54.855261655827555, "lon": 171.80425340316765, "alt_km": 21529.644770684677, "timestamp": "2025-12-23T07:45:09.670105+00:00", "meta": {"OBJECT_NAME": "BEIDOU-3 M28 (C50)", "OBJECT_ID": "2023-207A", "EPOCH": "2025-12-22T15:21:59.092992", "MEAN_MOTION": 1.86229743, "ECCENTRICITY": 0.00028082, "INCLINATION": 55.5929, "RA_OF_ASC_NODE": 68.2662, "ARG_OF_PERICENTER": 274.2836, "MEAN_ANOMALY": 85.7355, "EPHEMERIS_TYPE": 0, "CLASSIFICATION_TYPE": "U", "NORAD_CAT_ID": 58654, "ELEMENT_SET_NO": 999, "REV_AT_EPOCH": 1355, "BSTAR": 0, "MEAN_MOTION_DOT": -3e-07, "MEAN_MOTION_DDOT": 0}, "tle": {"line1": "1 58654U 23207A   25356.64026728 -.00000030  00000+0  00000+0 0  9990", "line2": "2 58654  55.5929  68.2662 0002808 274.2836  85.7355  1.86229743 13554"}}, "geometry": {"type": "Point", "coordinates": [171.80425340316765, 54.855261655827555]}}, {"type": "Feature", "properties": {"norad_id": 58655, "name": "BEIDOU-3 M26 (C48)", "group": "beidou", "lat": -41.52789320485563, "lon": -74.44609598268202, "alt_km": 21522.484063603468, "timestamp": "2025-12-23T07:45:09.670116+00:00", "meta": {"OBJECT_NAME": "BEIDOU-3 M26 (C48)", "OBJECT_ID": "2023-207B", "EPOCH": "2025-12-22T10:30:28.326240", "MEAN_MOTION": 1.86231247, "ECCENTRICITY": 0.00041599, "INCLINATION": 55.5947, "RA_OF_ASC_NODE": 68.2593, "ARG_OF_PERICENTER": 259.3765, "MEAN_ANOMALY": 100.6271, "EPHEMERIS_TYPE": 0, "CLASSIFICATION_TYPE": "U", "NORAD_CAT_ID": 58655, "ELEMENT_SET_NO": 999, "REV_AT_EPOCH": 1353, "BSTAR": 0, "MEAN_MOTION_DOT": -3e-07, "MEAN_MOTION_DDOT": 0}, "tle": {"line1": "1 58655U 23207B   25356.43782785 -.00000030  00000+0  00000+0 0  9990", "line2": "2 58655  55.5947  68.2593 0004159 259.3765 100.6271  1.86231247 13538"}}, "geometry": {"type": "Point", "coordinates": [-74.44609598268202, -41.52789320485563]}}]}